INTELSAT 35E (IS-35E)   
1 42818U 17041A   26087.75184093 -.00000258  00000+0  00000+0 0  9990
2 42818   0.0026 188.9481 0002170 175.4222  57.9341  1.00271356 32004
COSMOS 2520             
1 42907U 17046A   26087.26832625  .00000117  00000+0  00000+0 0  9994
2 42907   0.0263 116.4622 0000987 321.5708 249.2504  1.00274842 31588
TDRS 13                 
1 42915U 17047A   26087.85392104 -.00000117  00000+0  00000+0 0  9993
2 42915   3.4346   0.6988 0011329  97.5230  23.9707  1.00271719 31545
QZS-3 (MICHIBIKI-3)     
1 42917U 17048A   26087.85515140 -.00000367  00000+0  00000+0 0  9990
2 42917   0.0543 160.6297 0002050 199.2264 261.2717  1.00274303 31457
AMAZONAS 5              
1 42934U 17053A   26087.46133909 -.00000302  00000+0  00000+0 0  9990
2 42934   0.0462 320.3954 0004979  21.8938 308.6635  1.00271120 31236
ASIASAT 9               
1 42942U 17057A   26086.64195917 -.00000378  00000+0  00000+0 0  9992
2 42942   0.0114 206.7351 0002058 158.9030 172.6394  1.00270081 31043
INTELSAT 37E (IS-37E)   
1 42950U 17059A   26087.83655778  .00000000  00000+0  00000+0 0  9992
2 42950   0.0239 175.4387 0002037 201.1994  92.7782  1.00268827 31260
BSAT-4A                 
1 42951U 17059B   26087.85168471 -.00000370  00000+0  00000+0 0  9995
2 42951   0.0667  42.5610 0004401 349.4329 210.6989  1.00269903 30999
QZS-4 (MICHIBIKI-4)     
1 42965U 17062A   26087.57096681 -.00000334  00000+0  00000+0 0  9996
2 42965  40.1569 344.5133 0748036 270.3627 277.2698  1.00273721 30996
SES-11 (ECHOSTAR 105)   
1 42967U 17063A   26087.66656056 -.00000109  00000+0  00000+0 0  9997
2 42967   0.0447  23.7326 0002552 351.2842 306.0669  1.00271648 30919
KOREASAT 5A             
1 42984U 17067A   26087.85237806 -.00000378  00000+0  00000+0 0  9997
2 42984   0.0147 261.3434 0001834 124.2451 220.6752  1.00272961 30723
ALCOMSAT 1              
1 43039U 17078A   26087.84211270 -.00000206  00000+0  00000+0 0  9997
2 43039   0.0182 161.5008 0002650 183.7514 119.3629  1.00271556 30499
SBIRS GEO-3 (USA 282)   
1 43162U 18009A   26087.65581384  .00000110  00000+0  00000+0 0  9997
2 43162   2.1351   8.1663 0002288 350.3426 264.2393  1.00272340 30031
AL YAH 3                
1 43174U 18012A   26087.82405748 -.00000174  00000+0  00000+0 0  9993
2 43174   1.3448  84.0586 0004279 288.1714  90.5607  1.00272092 30042
SES-14                  
1 43175U 18012B   26087.32145314 -.00000298  00000+0  00000+0 0  9996
2 43175   0.0329  45.6423 0000906 305.1287 263.1805  1.00272419  6211
GOES 17                 
1 43226U 18022A   26087.59835360 -.00000201  00000+0  00000+0 0  9994
2 43226   0.7312  86.9387 0001538 236.4458 348.5274  1.00271175 29617
HISPASAT 30W-6          
1 43228U 18023A   26087.75270762  .00000000  00000+0  00000+0 0  9990
2 43228   0.0255  78.9970 0005961 300.9535  47.1938  1.00270437 29590
SUPERBIRD-B3            
1 43271U 18033A   26087.29163968 -.00000112  00000+0  00000+0 0  9992
2 43271   0.0264  94.8094 0001234 279.3454  78.5316  1.00271444 29249
HYLAS 4                 
1 43272U 18033B   26087.85947593 -.00000254  00000+0  00000+0 0  9996
2 43272   0.0219 108.1804 0001047 268.2684  85.6583  1.00269150 29260
IRNSS-1I                
1 43286U 18035A   26087.55554007  .00000086  00000+0  00000+0 0  9996
2 43286  28.9893  75.4371 0018600 189.5578 176.0710  1.00276129 29279
USA 283                 
1 43339U 18036A   26086.43239280  .00000000  00000+0  00000+0 0  9991
2 43339   0.0191 155.1188 0000120 145.4214 174.0767  1.00268377 24471
COSMOS 2526             
1 43432U 18037A   26086.42918575 -.00000363  00000+0  00000+0 0  9999
2 43432   0.0048 211.5628 0001048 237.8588  17.9860  1.00272253 29148
APSTAR-6C               
1 43450U 18041A   26087.85653808  .00000000  00000+0  00000+0 0  9994
2 43450   0.0100 322.4787 0002589  26.7325 279.4142  1.00271001 29003
BANGABANDHUSAT-1        
1 43463U 18044A   26087.85359139 -.00000382  00000+0  00000+0 0  9995
2 43463   0.0245 111.5822 0002272 259.1040 241.9571  1.00272098 28904
SES-12                  
1 43488U 18049A   26087.68589443 -.00000289  00000+0  00000+0 0  9997
2 43488   0.0416  31.8346 0002059 271.2478 224.9250  1.00272008 28613
FENGYUN 2H              
1 43491U 18050A   26087.87475112 -.00000144  00000+0  00000+0 0  9991
2 43491   2.8238  80.0249 0001697 172.9082 327.3229  1.00270326 28639
BEIDOU-2 IGSO-7         
1 43539U 18057A   26086.63100478 -.00000168  00000+0  00000+0 0  9990
2 43539  55.1838 163.7722 0101772 237.2605 124.1194  1.00275701 28316
TELSTAR 19V             
1 43562U 18059A   26087.35322439 -.00000300  00000+0  00000+0 0  9999
2 43562   0.0182 180.0377 0000881 264.3415 165.5389  1.00274786 28339
TELKOM 4 (MERAH PUTIH)  
1 43587U 18064A   26087.85133806 -.00000364  00000+0  00000+0 0  9995
2 43587   0.0152 194.6668 0002418 216.0839 189.9857  1.00272124 28074
TELSTAR 18V             
1 43611U 18069A   26087.58586461 -.00000313  00000+0  00000+0 0  9991
2 43611   0.0155 243.7988 0002168 113.5778 177.5170  1.00272070 27835
AZERSPACE 2 (IS-38)     
1 43632U 18074A   26087.19717262  .00000000  00000+0  00000+0 0  9994
2 43632   0.0236 182.1500 0001453 181.9838 297.5867  1.00270621 27630
HORIZONS-3E             
1 43633U 18074B   26087.58030691 -.00000050  00000+0  00000+0 0  9998
2 43633   0.0164   2.9179 0000996 312.5487 248.4263  1.00271469 27530
AEHF-4 (USA 288)        
1 43651U 18079A   26087.81667610 -.00000294  00000+0  00000+0 0  9996
2 43651   1.4226 356.9194 0063900 358.9093  56.7537  1.00276731 27490
BEIDOU-3 G1             
1 43683U 18085A   26087.85775141 -.00000296  00000+0  00000+0 0  9993
2 43683   2.8715  99.6138 0001563  22.7774 152.6389  1.00269347 27251
GSAT-29                 
1 43698U 18089A   26087.76960767  .00000066  00000+0  00000+0 0  9997
2 43698   0.0134 119.4729 0002257 245.9311 152.8547  1.00270594 26989
ES'HAIL 2               
1 43700U 18090A   26087.83510556  .00000125  00000+0  00000+0 0  9994
2 43700   0.0162 119.7268 0001123 249.2593 143.6958  1.00274259 26879
GEO-KOMPSAT-2A          
1 43823U 18100A   26087.85541139 -.00000364  00000+0  00000+0 0  9991
2 43823   0.0542  35.8753 0001640  15.6232 210.9778  1.00270275 26820
GSAT-11                 
1 43824U 18100B   26087.55944009 -.00000096  00000+0  00000+0 0  9994
2 43824   0.0918 263.3466 0005898 157.9540  40.0500  1.00271142 26669
GSAT-7A                 
1 43864U 18105A   26087.86433601  .00000007  00000+0  00000+0 0  9999
2 43864   0.0419 289.6651 0002185  78.0521 192.5118  1.00270284 26646
COSMOS 2533             
1 43867U 18107A   26086.25044479 -.00000057  00000+0  00000+0 0  9993
2 43867   0.0261 111.3491 0000699 338.2361 255.2460  1.00272816 26615
TJS-3                   
1 43874U 18110A   26087.70916873 -.00000288  00000+0  00000+0 0  9998
2 43874   2.3380  81.4463 0017606 346.6468 106.7064  1.00342082 26616
ZHONGXING-2D            
1 43920U 19001A   26087.85575808 -.00000357  00000+0  00000+0 0  9992
2 43920   0.0416  13.8935 0000772 287.8841 322.5362  1.00268514 53271
HELLAS-SAT 4 & SGS-1    
1 44034U 19007A   26087.76640098  .00000133  00000+0  00000+0 0  9990
2 44034   0.0701 124.6723 0003296  14.9419   1.4783  1.00270296 26567
GSAT-31                 
1 44035U 19007B   26087.83943890  .00000106  00000+0  00000+0 0  9995
2 44035   0.0444  84.9917 0004066 228.4623 222.8681  1.00272784 26166
NUSANTARA SATU          
1 44048U 19009A   26087.85887808 -.00000254  00000+0  00000+0 0  9994
2 44048   0.0308 135.3681 0002138 313.5835 192.5020  1.00270208 25963
ZHONGXING-6C            
1 44067U 19012A   26087.85575808 -.00000355  00000+0  00000+0 0  9995
2 44067   0.1002  73.8953 0009964 318.8986 231.9381  1.00269591 25931
WGS 10 (USA 291)        
1 44071U 19014A   26085.65498257  .00000030  00000+0  00000+0 0  9999
2 44071   0.0193 139.3523 0000571 180.4249 160.4005  1.00272022 25793
TIANLIAN 2-01           
1 44076U 19017A   26086.98956623 -.00000125  00000+0  00000+0 0  9996
2 44076   0.3309  82.4132 0002536 238.5281 297.7123  1.00271400 25837
ARABSAT-6A              
1 44186U 19021A   26087.83597223  .00000000  00000+0  00000+0 0  9996
2 44186   0.0255  39.1957 0002669 318.3831 160.0852  1.00269925 25352
BEIDOU-3 IGSO-1         
1 44204U 19023A   26085.65707529 -.00000212  00000+0  00000+0 0  9995
2 44204  58.5860  38.4984 0025183 236.7446 263.8673  1.00263805  6382
BEIDOU-2 G8             
1 44231U 19027A   26087.78728775 -.00000267  00000+0  00000+0 0  9991
2 44231   1.4547  74.2779 0011410 275.4388 264.3515  1.00268314 25274
YAMAL 601               
1 44307U 19031A   26087.48317919  .00000000  00000+0  00000+0 0  9995
2 44307   0.0241 176.7627 0002622 191.7348  40.3576  1.00272362 25104
AT&T T-16               
1 44333U 19034A   26087.66742723 -.00000135  00000+0  00000+0 0  9992
2 44333   0.0225 105.1693 0000982  86.5958 133.7236  1.00272796 24828
EUTELSAT 7C             
1 44334U 19034B   26087.33219985  .00000029  00000+0  00000+0 0  9997
2 44334   0.0655 177.4284 0003419 172.4468 322.4673  1.00271154  6024
COSMOS 2539             
1 44457U 19048A   26086.83786869  .00000062  00000+0  00000+0 0  9999
2 44457   0.0214 114.8447 0000294 127.6107 256.4221  1.00271017 24413
EDRS-C                  
1 44475U 19049A   26087.78685441 -.00000281  00000+0  00000+0 0  9993
2 44475   0.0192 146.6035 0001309 206.3852 258.9650  1.00273069 24405
INTELSAT 39 (IS-39)     
1 44476U 19049B   26087.86433601  .00000000  00000+0  00000+0 0  9990
2 44476   0.0238 180.6478 0000327  34.5694 344.1674  1.00269574 24321
AMOS-17                 
1 44479U 19050A   26087.83030751  .00000090  00000+0  00000+0 0  9990
2 44479   0.0173 265.2902 0001299 102.9604 133.8929  1.00274347 24380
AEHF-5 (USA 292)        
1 44481U 19051A   26087.84830471 -.00000279  00000+0  00000+0 0  9992
2 44481   1.5354 330.3654 0070879   3.1930 251.1629  1.00272970 24451
